{"type":"FeatureCollection","metadata":{"source":"https://tcgbusfs.blob.core.windows.net/blobtisv/CMS.xml","updated":"2026-08-01T00:00:00.000+08:00","crs":"EPSG:4326"},"features":[{"type":"Feature","id":"XSN5L00","properties":{"cms_id":"XSN5L00","link_id":"6002860200040A","road_id":"600286A","road_name":"康湖路","direction":"E","location_type":"1"},"geometry":{"type":"Point","coordinates":[121.62315,25.0778]}},{"type":"Feature","id":"XUANV20","properties":{"cms_id":"XUANV20","link_id":"6001120200058A","road_id":"600112A","road_name":"北安路","direction":"E","location_type":"1"},"geometry":{"type":"Point","coordinates":[121.55019,25.08517]}},{"type":"Feature","id":"XPS3M40","properties":{"cms_id":"XPS3M40","link_id":"6002840300020A","road_id":"600284A","road_name":"康寧路三段","direction":"SE","location_type":"1"},"geometry":{"type":"Point","coordinates":[121.61048,25.06581]}},{"type":"Feature","id":"XBHPW00","properties":{"cms_id":"XBHPW00","link_id":"6007970400000A","road_id":"600797A","road_name":"辛亥路四段","direction":"S","location_type":"1"},"geometry":{"type":"Point","coordinates":[121.5567,25.00421]}},{"type":"Feature","id":"XRRST00","properties":{"cms_id":"XRRST00","link_id":"6007210400000A","road_id":"600721A","road_name":"舊宗路二段","direction":"S","location_type":"1"},"geometry":{"type":"Point","coordinates":[121.57288,25.07398]}},{"type":"Feature","id":"XMH5E40","properties":{"cms_id":"XMH5E40","link_id":"6006650400018A","road_id":"600665A","road_name":"經貿一路","direction":"S","location_type":"1"},"geometry":{"type":"Point","coordinates":[121.61929,25.0561]}},{"type":"Feature","id":"XPRT970","properties":{"cms_id":"XPRT970","link_id":"6007200700010A","road_id":"600720A","road_name":"舊宗路一段","direction":"NW","location_type":"1"},"geometry":{"type":"Point","coordinates":[121.57657,25.06373]}},{"type":"Feature","id":"X8211A0","properties":{"cms_id":"X8211A0","link_id":"6001910200000A","road_id":"600191A","road_name":"大度路","direction":"E","location_type":"2"},"geometry":{"type":"Point","coordinates":[121.49309,25.1214]}},{"type":"Feature","id":"XXENB60","properties":{"cms_id":"XXENB60","link_id":"6006970500010A","road_id":"600697A","road_name":"至善路二段","direction":"SW","location_type":"1"},"geometry":{"type":"Point","coordinates":[121.55003,25.1001]}},{"type":"Feature","id":"XP5JN60","properties":{"cms_id":"XP5JN60","link_id":"6005280600010A","road_id":"600528A","road_name":"民權東路二段","direction":"W","location_type":"1"},"geometry":{"type":"Point","coordinates":[121.53191,25.06244]}},{"type":"Feature","id":"XZ000A0","properties":{"cms_id":"XZ000A0","link_id":"6006080000040A","road_id":"600608A","road_name":"環河北路一段","direction":"N","location_type":"1"},"geometry":{"type":"Point","coordinates":[121.50637,25.04975]}},{"type":"Feature","id":"XLRIF60","properties":{"cms_id":"XLRIF60","link_id":"6001180200010A","road_id":"600118A","road_name":"南京東路一段","direction":"E","location_type":"1"},"geometry":{"type":"Point","coordinates":[121.52581,25.05214]}},{"type":"Feature","id":"X6160C0","properties":{"cms_id":"X6160C0","link_id":"2000900000400A","road_id":"200090","road_name":"環東大道","direction":"E","location_type":"2"},"geometry":{"type":"Point","coordinates":[121.60754,25.05939]}},{"type":"Feature","id":"X4210D0","properties":{"cms_id":"X4210D0","link_id":"2001000000740A","road_id":"200100","road_name":"環河快速道路","direction":"S","location_type":"2"},"geometry":{"type":"Point","coordinates":[121.49132,25.02282]}},{"type":"Feature","id":"XKUFC60","properties":{"cms_id":"XKUFC60","link_id":"6003420600000A","road_id":"600342A","road_name":"忠孝西路一段","direction":"W","location_type":"1"},"geometry":{"type":"Point","coordinates":[121.51269,25.0475]}},{"type":"Feature","id":"XKUFX60","properties":{"cms_id":"XKUFX60","link_id":"6003930400013A","road_id":"600393A","road_name":"敦化南路二段","direction":"S","location_type":"2"},"geometry":{"type":"Point","coordinates":[121.54876,25.02304]}},{"type":"Feature","id":"XM210E0","properties":{"cms_id":"XM210E0","link_id":"6008900400000A","road_id":"600890A","road_name":"大直橋","direction":"S","location_type":"2"},"geometry":{"type":"Point","coordinates":[121.54378,25.07276]}},{"type":"Feature","id":"XG7PG00","properties":{"cms_id":"XG7PG00","link_id":"6001710100010A","road_id":"600171A","road_name":"基隆路二段","direction":"NE","location_type":"1"},"geometry":{"type":"Point","coordinates":[121.55257,25.02424]}},{"type":"Feature","id":"XN2B0E0","properties":{"cms_id":"XN2B0E0","link_id":"2000801005000A","road_id":"200080","road_name":"新生高架道路","direction":"S","location_type":"2"},"geometry":{"type":"Point","coordinates":[121.52766,25.06583]}},{"type":"Feature","id":"XLDTW00","properties":{"cms_id":"XLDTW00","link_id":"6004930400060A","road_id":"600493A","road_name":"松江路","direction":"S","location_type":"1"},"geometry":{"type":"Point","coordinates":[121.53284,25.04939]}},{"type":"Feature","id":"XN2B0E2","properties":{"cms_id":"XN2B0E2","link_id":"2000801005000A","road_id":"200080","road_name":"新生高架道路","direction":"S","location_type":"2"},"geometry":{"type":"Point","coordinates":[121.52769,25.06758]}},{"type":"Feature","id":"XREG540","properties":{"cms_id":"XREG540","link_id":"6008230400000A","road_id":"600823A","road_name":"重慶北路三段","direction":"S","location_type":"1"},"geometry":{"type":"Point","coordinates":[121.51356,25.07569]}},{"type":"Feature","id":"XN2B0E1","properties":{"cms_id":"XN2B0E1","link_id":"6004240400010A","road_id":"600424A","road_name":"新生北路二段","direction":"S","location_type":"1"},"geometry":{"type":"Point","coordinates":[121.52743,25.05582]}},{"type":"Feature","id":"XKVVH60","properties":{"cms_id":"XKVVH60","link_id":"6003390500006A","road_id":"","road_name":"","direction":"","location_type":"1"},"geometry":{"type":"Point","coordinates":[121.58733,25.04891]}},{"type":"Feature","id":"XZ050A0","properties":{"cms_id":"XZ050A0","link_id":"6001700100050A","road_id":"600170A","road_name":"基隆路一段","direction":"NE","location_type":"2"},"geometry":{"type":"Point","coordinates":[121.56543,25.04312]}},{"type":"Feature","id":"XXZF900","properties":{"cms_id":"XXZF900","link_id":"6003760000008A","road_id":"600376A","road_name":"承德路六段","direction":"N","location_type":"2"},"geometry":{"type":"Point","coordinates":[121.51217,25.10327]}},{"type":"Feature","id":"XHKQP20","properties":{"cms_id":"XHKQP20","link_id":"6000770200030A","road_id":"600077A","road_name":"信義路四段","direction":"E","location_type":"1"},"geometry":{"type":"Point","coordinates":[121.5528,25.03305]}},{"type":"Feature","id":"XN0B0E0","properties":{"cms_id":"XN0B0E0","link_id":"2000801110000A","road_id":"200080","road_name":"新生高架道路","direction":"N","location_type":"2"},"geometry":{"type":"Point","coordinates":[121.53033,25.04413]}},{"type":"Feature","id":"X5210E0","properties":{"cms_id":"X5210E0","link_id":"6006100300010A","road_id":"600610A","road_name":"環河北路三段","direction":"SE","location_type":"2"},"geometry":{"type":"Point","coordinates":[121.50682,25.08258]}},{"type":"Feature","id":"XTEZS00","properties":{"cms_id":"XTEZS00","link_id":"6003680700010A","road_id":"600368A","road_name":"成功路五段","direction":"NW","location_type":"1"},"geometry":{"type":"Point","coordinates":[121.60752,25.0808]}},{"type":"Feature","id":"X3120C0","properties":{"cms_id":"X3120C0","link_id":"6007940100040A","road_id":"600794A","road_name":"辛亥路一段","direction":"NE","location_type":"2"},"geometry":{"type":"Point","coordinates":[121.53073,25.02083]}},{"type":"Feature","id":"XNXPC60","properties":{"cms_id":"XNXPC60","link_id":"6005300200010A","road_id":"600530A","road_name":"民權東路四段","direction":"E","location_type":"1"},"geometry":{"type":"Point","coordinates":[121.55952,25.06252]}},{"type":"Feature","id":"XTLN800","properties":{"cms_id":"XTLN800","link_id":"6001120200058A","road_id":"600112A","road_name":"北安路","direction":"E","location_type":"1"},"geometry":{"type":"Point","coordinates":[121.54906,25.08273]}},{"type":"Feature","id":"X8250E0","properties":{"cms_id":"X8250E0","link_id":"6002960300020A","road_id":"600296A","road_name":"延平北路六段","direction":"SE","location_type":"1"},"geometry":{"type":"Point","coordinates":[121.4995,25.092]}},{"type":"Feature","id":"XPKJY40","properties":{"cms_id":"XPKJY40","link_id":"6004930000033A","road_id":"600493A","road_name":"松江路","direction":"N","location_type":"1"},"geometry":{"type":"Point","coordinates":[121.53318,25.06485]}},{"type":"Feature","id":"XFSFX40","properties":{"cms_id":"XFSFX40","link_id":"6005630000020A","road_id":"600563A","road_name":"泉州街","direction":"N","location_type":"1"},"geometry":{"type":"Point","coordinates":[121.51313,25.0252]}},{"type":"Feature","id":"X9011A0","properties":{"cms_id":"X9011A0","link_id":"0000310100300A","road_id":"","road_name":"","direction":"","location_type":"2"},"geometry":{"type":"Point","coordinates":[121.58368,25.00426]}},{"type":"Feature","id":"XLRKQ40","properties":{"cms_id":"XLRKQ40","link_id":"2000101114000A","road_id":"200010","road_name":"水源快速道路","direction":"NW","location_type":"6"},"geometry":{"type":"Point","coordinates":[121.5368,24.99817]}},{"type":"Feature","id":"X9240A0","properties":{"cms_id":"X9240A0","link_id":"2000300000100A","road_id":"200030","road_name":"信義快速道路","direction":"S","location_type":"2"},"geometry":{"type":"Point","coordinates":[121.57643,25.02324]}},{"type":"Feature","id":"XPMSV60","properties":{"cms_id":"XPMSV60","link_id":"6005320600000A","road_id":"600532A","road_name":"民權東路六段","direction":"W","location_type":"1"},"geometry":{"type":"Point","coordinates":[121.57285,25.06507]}},{"type":"Feature","id":"XHHNU00","properties":{"cms_id":"XHHNU00","link_id":"6008190600000A","road_id":"600819A","road_name":"酒泉街","direction":"W","location_type":"1"},"geometry":{"type":"Point","coordinates":[121.50909,25.07219]}},{"type":"Feature","id":"XMH5E60","properties":{"cms_id":"XMH5E60","link_id":"6001320600040A","road_id":"600132A","road_name":"南港路一段","direction":"W","location_type":"1"},"geometry":{"type":"Point","coordinates":[121.61929,25.05493]}},{"type":"Feature","id":"XQUGY40","properties":{"cms_id":"XQUGY40","link_id":"6003730400020A","road_id":"600373A","road_name":"承德路三段","direction":"S","location_type":"1"},"geometry":{"type":"Point","coordinates":[121.51828,25.071]}},{"type":"Feature","id":"XS7SN40","properties":{"cms_id":"XS7SN40","link_id":"6009340500000A","road_id":"600934A","road_name":"瑞光路478巷","direction":"SW","location_type":"1"},"geometry":{"type":"Point","coordinates":[121.56941,25.07874]}},{"type":"Feature","id":"X6141E1","properties":{"cms_id":"X6141E1","link_id":"2000700000280A","road_id":"200070","road_name":"堤頂大道","direction":"S","location_type":"2"},"geometry":{"type":"Point","coordinates":[121.57189,25.06565]}},{"type":"Feature","id":"XHNJV40","properties":{"cms_id":"XHNJV40","link_id":"6004260000030A","road_id":"600426A","road_name":"新生南路一段","direction":"N","location_type":"1"},"geometry":{"type":"Point","coordinates":[121.53271,25.03682]}},{"type":"Feature","id":"X0391G0","properties":{"cms_id":"X0391G0","link_id":"6002690600000A","road_id":"600269A","road_name":"市民大道五段","direction":"W","location_type":"2"},"geometry":{"type":"Point","coordinates":[121.55965,25.04591]}},{"type":"Feature","id":"X6330G0","properties":{"cms_id":"X6330G0","link_id":"6001230500000A","road_id":"600123A","road_name":"南京東路六段","direction":"SW","location_type":"1"},"geometry":{"type":"Point","coordinates":[121.58833,25.06097]}},{"type":"Feature","id":"X03A1G0","properties":{"cms_id":"X03A1G0","link_id":"2000201105000A","road_id":"200020","road_name":"市民大道高架道路","direction":"W","location_type":"2"},"geometry":{"type":"Point","coordinates":[121.55613,25.0449]}},{"type":"Feature","id":"X6141E0","properties":{"cms_id":"X6141E0","link_id":"2000701008000A","road_id":"200070","road_name":"堤頂大道","direction":"S","location_type":"2"},"geometry":{"type":"Point","coordinates":[121.57216,25.06389]}},{"type":"Feature","id":"XLHXA20","properties":{"cms_id":"XLHXA20","link_id":"6003390500008A","road_id":"","road_name":"","direction":"","location_type":"1"},"geometry":{"type":"Point","coordinates":[121.59258,25.05011]}},{"type":"Feature","id":"XMAZC20","properties":{"cms_id":"XMAZC20","link_id":"6003400600010A","road_id":"600340A","road_name":"忠孝東路七段","direction":"W","location_type":"1"},"geometry":{"type":"Point","coordinates":[121.61517,25.0531]}},{"type":"Feature","id":"XU8P760","properties":{"cms_id":"XU8P760","link_id":"6001120600090A","road_id":"600112A","road_name":"北安路","direction":"W","location_type":"1"},"geometry":{"type":"Point","coordinates":[121.55408,25.08533]}},{"type":"Feature","id":"X1241E0","properties":{"cms_id":"X1241E0","link_id":"2000401007000A","road_id":"200040","road_name":"建國南北快速道路","direction":"S","location_type":"2"},"geometry":{"type":"Point","coordinates":[121.53649,25.04807]}},{"type":"Feature","id":"X1011A0","properties":{"cms_id":"X1011A0","link_id":"2000400100400A","road_id":"200040","road_name":"建國南北快速道路","direction":"N","location_type":"1"},"geometry":{"type":"Point","coordinates":[121.53806,25.03454]}},{"type":"Feature","id":"XITCH00","properties":{"cms_id":"XITCH00","link_id":"2001000100540A","road_id":"200100","road_name":"環河快速道路","direction":"N","location_type":"4"},"geometry":{"type":"Point","coordinates":[121.49251,25.03705]}},{"type":"Feature","id":"X9040A0","properties":{"cms_id":"X9040A0","link_id":"2000300100100A","road_id":"200030","road_name":"信義快速道路","direction":"N","location_type":"2"},"geometry":{"type":"Point","coordinates":[121.57779,25.02168]}},{"type":"Feature","id":"X9211A0","properties":{"cms_id":"X9211A0","link_id":"6000780200040A","road_id":"600078A","road_name":"信義路五段","direction":"E","location_type":"2"},"geometry":{"type":"Point","coordinates":[121.56865,25.03239]}},{"type":"Feature","id":"XZ070A0","properties":{"cms_id":"XZ070A0","link_id":"2000200000300A","road_id":"200020","road_name":"市民大道高架道路","direction":"E","location_type":"2"},"geometry":{"type":"Point","coordinates":[121.53561,25.04474]}},{"type":"Feature","id":"X25NV01","properties":{"cms_id":"X25NV01","link_id":"6007990000000A","road_id":"600799A","road_name":"辛亥路六段","direction":"N","location_type":"1"},"geometry":{"type":"Point","coordinates":[121.55244,24.98883]}},{"type":"Feature","id":"X1ESA40","properties":{"cms_id":"X1ESA40","link_id":"6004550500000A","road_id":"600455A","road_name":"木新路二段","direction":"SW","location_type":"1"},"geometry":{"type":"Point","coordinates":[121.56883,24.98397]}},{"type":"Feature","id":"XHKQD00","properties":{"cms_id":"XHKQD00","link_id":"6001700100100A","road_id":"600170A","road_name":"基隆路一段","direction":"NE","location_type":"1"},"geometry":{"type":"Point","coordinates":[121.5601,25.0333]}},{"type":"Feature","id":"XLPN800","properties":{"cms_id":"XLPN800","link_id":"6003890000040A","road_id":"600389A","road_name":"敦化北路","direction":"N","location_type":"1"},"geometry":{"type":"Point","coordinates":[121.54916,25.04889]}},{"type":"Feature","id":"X6151C0","properties":{"cms_id":"X6151C0","link_id":"2000901003000A","road_id":"200090","road_name":"環東大道","direction":"E","location_type":"2"},"geometry":{"type":"Point","coordinates":[121.58141,25.05713]}},{"type":"Feature","id":"XASST00","properties":{"cms_id":"XASST00","link_id":"6001520700020A","road_id":"600152A","road_name":"和平東路四段","direction":"NW","location_type":"1"},"geometry":{"type":"Point","coordinates":[121.5731,25.00066]}},{"type":"Feature","id":"XNZ4600","properties":{"cms_id":"XNZ4600","link_id":"6006660000003A","road_id":"600666A","road_name":"經貿二路","direction":"N","location_type":"1"},"geometry":{"type":"Point","coordinates":[121.6153,25.05999]}},{"type":"Feature","id":"XIMNN20","properties":{"cms_id":"XIMNN20","link_id":"6000620200020A","road_id":"600062A","road_name":"仁愛路四段","direction":"E","location_type":"1"},"geometry":{"type":"Point","coordinates":[121.55054,25.0376]}},{"type":"Feature","id":"XJDSI60","properties":{"cms_id":"XJDSI60","link_id":"6003370200010A","road_id":"600337A","road_name":"忠孝東路五段","direction":"E","location_type":"2"},"geometry":{"type":"Point","coordinates":[121.57041,25.04096]}},{"type":"Feature","id":"XIMRF60","properties":{"cms_id":"XIMRF60","link_id":"6000620600040A","road_id":"600062A","road_name":"仁愛路四段","direction":"W","location_type":"1"},"geometry":{"type":"Point","coordinates":[121.56022,25.03769]}},{"type":"Feature","id":"X0121C0","properties":{"cms_id":"X0121C0","link_id":"2000200000060A","road_id":"200020","road_name":"市民大道高架道路","direction":"E","location_type":"2"},"geometry":{"type":"Point","coordinates":[121.51344,25.04935]}},{"type":"Feature","id":"XM54R00","properties":{"cms_id":"XM54R00","link_id":"6006260000000A","road_id":"600626A","road_name":"研究院路二段","direction":"N","location_type":"1"},"geometry":{"type":"Point","coordinates":[121.61571,25.04804]}},{"type":"Feature","id":"XXRHJ60","properties":{"cms_id":"XXRHJ60","link_id":"6006370600010A","road_id":"600637A","road_name":"福國路","direction":"W","location_type":"2"},"geometry":{"type":"Point","coordinates":[121.52086,25.10182]}},{"type":"Feature","id":"XSEMV60","properties":{"cms_id":"XSEMV60","link_id":"6004360500030A","road_id":"600436A","road_name":"明水路","direction":"SW","location_type":"1"},"geometry":{"type":"Point","coordinates":[121.54952,25.07736]}},{"type":"Feature","id":"XGNPT00","properties":{"cms_id":"XGNPT00","link_id":"6001710100040A","road_id":"600171A","road_name":"基隆路二段","direction":"NE","location_type":"1"},"geometry":{"type":"Point","coordinates":[121.55722,25.02884]}},{"type":"Feature","id":"XI6I960","properties":{"cms_id":"XI6I960","link_id":"6000750600000A","road_id":"600075A","road_name":"信義路二段","direction":"W","location_type":"1"},"geometry":{"type":"Point","coordinates":[121.52455,25.03543]}},{"type":"Feature","id":"XLRR840","properties":{"cms_id":"XLRR840","link_id":"6000090400020A","road_id":"600009A","road_name":"三民路","direction":"S","location_type":"1"},"geometry":{"type":"Point","coordinates":[121.56369,25.05238]}},{"type":"Feature","id":"XWWK900","properties":{"cms_id":"XWWK900","link_id":"6006440100010A","road_id":"600644A","road_name":"福林路","direction":"NE","location_type":"1"},"geometry":{"type":"Point","coordinates":[121.53397,25.09756]}},{"type":"Feature","id":"X2110C0","properties":{"cms_id":"X2110C0","link_id":"2000600100130A","road_id":"200060","road_name":"基隆路高架道路","direction":"NE","location_type":"2"},"geometry":{"type":"Point","coordinates":[121.53924,25.0131]}},{"type":"Feature","id":"XLRIF20","properties":{"cms_id":"XLRIF20","link_id":"6001180200003A","road_id":"600118A","road_name":"南京東路一段","direction":"E","location_type":"1"},"geometry":{"type":"Point","coordinates":[121.52304,25.05214]}},{"type":"Feature","id":"X03C1G0","properties":{"cms_id":"X03C1G0","link_id":"2000200100230A","road_id":"200020","road_name":"市民大道高架道路","direction":"W","location_type":"2"},"geometry":{"type":"Point","coordinates":[121.53052,25.04637]}},{"type":"Feature","id":"X03C1G1","properties":{"cms_id":"X03C1G1","link_id":"6008300400000A","road_id":"600830A","road_name":"金山北路","direction":"S","location_type":"2"},"geometry":{"type":"Point","coordinates":[121.53028,25.0462]}},{"type":"Feature","id":"X6120C0","properties":{"cms_id":"X6120C0","link_id":"6001230100020A","road_id":"600123A","road_name":"南京東路六段","direction":"NE","location_type":"2"},"geometry":{"type":"Point","coordinates":[121.57038,25.05104]}},{"type":"Feature","id":"XSN5L40","properties":{"cms_id":"XSN5L40","link_id":"6002860600040A","road_id":"600286A","road_name":"康湖路","direction":"W","location_type":"1"},"geometry":{"type":"Point","coordinates":[121.62331,25.07882]}},{"type":"Feature","id":"XZ040A0","properties":{"cms_id":"XZ040A0","link_id":"2000200100230A","road_id":"200020","road_name":"市民大道高架道路","direction":"W","location_type":"2"},"geometry":{"type":"Point","coordinates":[121.53142,25.04588]}},{"type":"Feature","id":"X7230E0","properties":{"cms_id":"X7230E0","link_id":"6001780400020A","road_id":"600178A","road_name":"塔悠路","direction":"S","location_type":"1"},"geometry":{"type":"Point","coordinates":[121.56996,25.0527]}},{"type":"Feature","id":"X4090H0","properties":{"cms_id":"X4090H0","link_id":"2001000000740A","road_id":"200100","road_name":"環河快速道路","direction":"S","location_type":"1"},"geometry":{"type":"Point","coordinates":[121.49155,25.02249]}},{"type":"Feature","id":"XM010A0","properties":{"cms_id":"XM010A0","link_id":"6003140000000A","road_id":"600314A","road_name":"復北地下道","direction":"N","location_type":"2"},"geometry":{"type":"Point","coordinates":[121.54481,25.06609]}},{"type":"Feature","id":"XTEZS60","properties":{"cms_id":"XTEZS60","link_id":"6002860600020A","road_id":"600286A","road_name":"康湖路","direction":"W","location_type":"1"},"geometry":{"type":"Point","coordinates":[121.61341,25.07871]}},{"type":"Feature","id":"XTUN940","properties":{"cms_id":"XTUN940","link_id":"6001120200058A","road_id":"600112A","road_name":"北安路","direction":"E","location_type":"1"},"geometry":{"type":"Point","coordinates":[121.54961,25.0848]}},{"type":"Feature","id":"XLMR860","properties":{"cms_id":"XLMR860","link_id":"6001220600010A","road_id":"600122A","road_name":"南京東路五段","direction":"W","location_type":"2"},"geometry":{"type":"Point","coordinates":[121.56158,25.05152]}},{"type":"Feature","id":"X6310G0","properties":{"cms_id":"X6310G0","link_id":"2000900100640A","road_id":"200090","road_name":"環東大道","direction":"W","location_type":"2"},"geometry":{"type":"Point","coordinates":[121.62185,25.05835]}},{"type":"Feature","id":"XN0C0E1","properties":{"cms_id":"XN0C0E1","link_id":"2000800100330A","road_id":"200080","road_name":"新生高架道路","direction":"N","location_type":"2"},"geometry":{"type":"Point","coordinates":[121.52933,25.04925]}},{"type":"Feature","id":"XJIL720","properties":{"cms_id":"XJIL720","link_id":"6003350200010A","road_id":"600335A","road_name":"忠孝東路三段","direction":"E","location_type":"2"},"geometry":{"type":"Point","coordinates":[121.5392,25.04167]}},{"type":"Feature","id":"XN0C0E0","properties":{"cms_id":"XN0C0E0","link_id":"2000800100290A","road_id":"200080","road_name":"新生高架道路","direction":"N","location_type":"2"},"geometry":{"type":"Point","coordinates":[121.52788,25.05308]}},{"type":"Feature","id":"XJM4U70","properties":{"cms_id":"XJM4U70","link_id":"6006260400000A","road_id":"600626A","road_name":"研究院路二段","direction":"S","location_type":"1"},"geometry":{"type":"Point","coordinates":[121.61667,25.04278]}},{"type":"Feature","id":"X3110C0","properties":{"cms_id":"X3110C0","link_id":"6005590300010A","road_id":"600559A","road_name":"汀州路三段","direction":"SE","location_type":"2"},"geometry":{"type":"Point","coordinates":[121.52612,25.01988]}},{"type":"Feature","id":"X8001H0","properties":{"cms_id":"X8001H0","link_id":"2001000100000A","road_id":"200100","road_name":"環河快速道路","direction":"N","location_type":"2"},"geometry":{"type":"Point","coordinates":[121.50756,25.08207]}},{"type":"Feature","id":"XPZHS40","properties":{"cms_id":"XPZHS40","link_id":"6000280400040A","road_id":"600028A","road_name":"中山北路三段","direction":"S","location_type":"1"},"geometry":{"type":"Point","coordinates":[121.52233,25.0666]}},{"type":"Feature","id":"XJVRL40","properties":{"cms_id":"XJVRL40","link_id":"6001700500040A","road_id":"600170A","road_name":"基隆路一段","direction":"SW","location_type":"1"},"geometry":{"type":"Point","coordinates":[121.56602,25.04408]}},{"type":"Feature","id":"X1221E0","properties":{"cms_id":"X1221E0","link_id":"2000401004010A","road_id":"200040","road_name":"建國南北快速道路","direction":"S","location_type":"2"},"geometry":{"type":"Point","coordinates":[121.53677,25.06146]}},{"type":"Feature","id":"X1031A0","properties":{"cms_id":"X1031A0","link_id":"2000400000310A","road_id":"200040","road_name":"建國南北快速道路","direction":"S","location_type":"1"},"geometry":{"type":"Point","coordinates":[121.53709,25.04185]}},{"type":"Feature","id":"XRAWE00","properties":{"cms_id":"XRAWE00","link_id":"6003650000000A","road_id":"600365A","road_name":"成功路二段","direction":"N","location_type":"1"},"geometry":{"type":"Point","coordinates":[121.59039,25.07021]}},{"type":"Feature","id":"X9FLB00","properties":{"cms_id":"X9FLB00","link_id":"6006590400000A","road_id":"600659A","road_name":"竹子湖路","direction":"S","location_type":"1"},"geometry":{"type":"Point","coordinates":[121.54004,25.16742]}},{"type":"Feature","id":"XJTJ820","properties":{"cms_id":"XJTJ820","link_id":"6003340200000A","road_id":"600334A","road_name":"忠孝東路二段","direction":"E","location_type":"1"},"geometry":{"type":"Point","coordinates":[121.52788,25.04361]}},{"type":"Feature","id":"XHMKW40","properties":{"cms_id":"XHMKW40","link_id":"2000400000400A","road_id":"200040","road_name":"建國南北快速道路","direction":"S","location_type":"2"},"geometry":{"type":"Point","coordinates":[121.5376,25.03428]}},{"type":"Feature","id":"X4040H0","properties":{"cms_id":"X4040H0","link_id":"6005590700010A","road_id":"600559A","road_name":"汀州路三段","direction":"NW","location_type":"2"},"geometry":{"type":"Point","coordinates":[121.52634,25.01941]}},{"type":"Feature","id":"XKWN860","properties":{"cms_id":"XKWN860","link_id":"6003890400040A","road_id":"600389A","road_name":"敦化北路","direction":"S","location_type":"1"},"geometry":{"type":"Point","coordinates":[121.54958,25.04825]}},{"type":"Feature","id":"X0381G0","properties":{"cms_id":"X0381G0","link_id":"2000201007000A","road_id":"200020","road_name":"市民大道高架道路","direction":"E","location_type":"1"},"geometry":{"type":"Point","coordinates":[121.56854,25.04575]}},{"type":"Feature","id":"X8201A0","properties":{"cms_id":"X8201A0","link_id":"6003770700020A","road_id":"600377A","road_name":"承德路七段","direction":"NW","location_type":"2"},"geometry":{"type":"Point","coordinates":[121.50203,25.11896]}},{"type":"Feature","id":"X03B0G0","properties":{"cms_id":"X03B0G0","link_id":"2000200000400A","road_id":"200020","road_name":"市民大道高架道路","direction":"E","location_type":"1"},"geometry":{"type":"Point","coordinates":[121.54553,25.04516]}},{"type":"Feature","id":"X6360G0","properties":{"cms_id":"X6360G0","link_id":"6001230500040A","road_id":"600123A","road_name":"南京東路六段","direction":"SW","location_type":"2"},"geometry":{"type":"Point","coordinates":[121.57056,25.05138]}},{"type":"Feature","id":"XT5TC20","properties":{"cms_id":"XT5TC20","link_id":"6000910200020A","road_id":"600091A","road_name":"內湖路一段","direction":"E","location_type":"1"},"geometry":{"type":"Point","coordinates":[121.57433,25.08019]}},{"type":"Feature","id":"XN0F0E0","properties":{"cms_id":"XN0F0E0","link_id":"2000800100110A","road_id":"200080","road_name":"新生高架道路","direction":"N","location_type":"2"},"geometry":{"type":"Point","coordinates":[121.528,25.06889]}},{"type":"Feature","id":"XAAPB40","properties":{"cms_id":"XAAPB40","link_id":"6007980000000A","road_id":"600798A","road_name":"辛亥路五段","direction":"N","location_type":"1"},"geometry":{"type":"Point","coordinates":[121.55413,25.00032]}},{"type":"Feature","id":"X2ILN00","properties":{"cms_id":"X2ILN00","link_id":"6006730000010A","road_id":"600673A","road_name":"羅斯福路六段","direction":"N","location_type":"2"},"geometry":{"type":"Point","coordinates":[121.54112,24.99402]}},{"type":"Feature","id":"XH6N700","properties":{"cms_id":"XH6N700","link_id":"6003930000000A","road_id":"600393A","road_name":"敦化南路二段","direction":"N","location_type":"3"},"geometry":{"type":"Point","coordinates":[121.54897,25.03222]}},{"type":"Feature","id":"X8231A0","properties":{"cms_id":"X8231A0","link_id":"6006560500020A","road_id":"600656A","road_name":"立賢路","direction":"SW","location_type":"2"},"geometry":{"type":"Point","coordinates":[121.5029,25.11465]}},{"type":"Feature","id":"X0141C1","properties":{"cms_id":"X0141C1","link_id":"2000200000300A","road_id":"200020","road_name":"市民大道高架道路","direction":"E","location_type":"1"},"geometry":{"type":"Point","coordinates":[121.53667,25.04442]}},{"type":"Feature","id":"X0141C0","properties":{"cms_id":"X0141C0","link_id":"2000200000300A","road_id":"200020","road_name":"市民大道高架道路","direction":"E","location_type":"2"},"geometry":{"type":"Point","coordinates":[121.53693,25.04477]}},{"type":"Feature","id":"XHGCJ20","properties":{"cms_id":"XHGCJ20","link_id":"6007240100020A","road_id":"600724A","road_name":"艋舺大道","direction":"NE","location_type":"1"},"geometry":{"type":"Point","coordinates":[121.49504,25.03209]}},{"type":"Feature","id":"X8210E0","properties":{"cms_id":"X8210E0","link_id":"6001960400040A","road_id":"600196A","road_name":"大業路","direction":"S","location_type":"2"},"geometry":{"type":"Point","coordinates":[121.49915,25.12307]}},{"type":"Feature","id":"XEFMN40","properties":{"cms_id":"XEFMN40","link_id":"6001720100020A","road_id":"600172A","road_name":"基隆路三段","direction":"NE","location_type":"1"},"geometry":{"type":"Point","coordinates":[121.54786,25.02032]}},{"type":"Feature","id":"XLAKQ00","properties":{"cms_id":"XLAKQ00","link_id":"6003020000020A","road_id":"600302A","road_name":"建國北路一段","direction":"N","location_type":"1"},"geometry":{"type":"Point","coordinates":[121.53696,25.04998]}},{"type":"Feature","id":"XPMSU00","properties":{"cms_id":"XPMSU00","link_id":"2000701112000A","road_id":"200070","road_name":"堤頂大道","direction":"N","location_type":"1"},"geometry":{"type":"Point","coordinates":[121.57283,25.0613]}},{"type":"Feature","id":"XHYFT40","properties":{"cms_id":"XHYFT40","link_id":"6008250400050A","road_id":"600825A","road_name":"重慶南路一段","direction":"S","location_type":"2"},"geometry":{"type":"Point","coordinates":[121.51261,25.03693]}},{"type":"Feature","id":"X1001A0","properties":{"cms_id":"X1001A0","link_id":"2000400100520A","road_id":"200040","road_name":"建國南北快速道路","direction":"N","location_type":"2"},"geometry":{"type":"Point","coordinates":[121.53773,25.02299]}},{"type":"Feature","id":"XHNJV00","properties":{"cms_id":"XHNJV00","link_id":"6004270000003A","road_id":"600427A","road_name":"新生南路二段","direction":"N","location_type":"1"},"geometry":{"type":"Point","coordinates":[121.53294,25.03324]}},{"type":"Feature","id":"X2WKS00","properties":{"cms_id":"X2WKS00","link_id":"6006720400020A","road_id":"600672A","road_name":"羅斯福路五段","direction":"S","location_type":"1"},"geometry":{"type":"Point","coordinates":[121.54007,24.9988]}},{"type":"Feature","id":"XP6JY20","properties":{"cms_id":"XP6JY20","link_id":"6005290600010A","road_id":"600529A","road_name":"民權東路三段","direction":"W","location_type":"1"},"geometry":{"type":"Point","coordinates":[121.54392,25.06239]}},{"type":"Feature","id":"XN2A0E1","properties":{"cms_id":"XN2A0E1","link_id":"6000290400000A","road_id":"600029A","road_name":"中山北路四段","direction":"S","location_type":"2"},"geometry":{"type":"Point","coordinates":[121.52501,25.0773]}},{"type":"Feature","id":"X6351G1","properties":{"cms_id":"X6351G1","link_id":"2000900000100A","road_id":"200090","road_name":"環東大道","direction":"E","location_type":"1"},"geometry":{"type":"Point","coordinates":[121.57978,25.05641]}},{"type":"Feature","id":"XN2A0E0","properties":{"cms_id":"XN2A0E0","link_id":"6000290400000A","road_id":"600029A","road_name":"中山北路四段","direction":"S","location_type":"2"},"geometry":{"type":"Point","coordinates":[121.52509,25.07729]}},{"type":"Feature","id":"X6351G0","properties":{"cms_id":"X6351G0","link_id":"2000900100140A","road_id":"200090","road_name":"環東大道","direction":"W","location_type":"2"},"geometry":{"type":"Point","coordinates":[121.58048,25.05678]}},{"type":"Feature","id":"XTEZS40","properties":{"cms_id":"XTEZS40","link_id":"6003680300000A","road_id":"600368A","road_name":"成功路五段","direction":"SE","location_type":"1"},"geometry":{"type":"Point","coordinates":[121.6058,25.08223]}},{"type":"Feature","id":"XRRST60","properties":{"cms_id":"XRRST60","link_id":"6005740500010A","road_id":"600574A","road_name":"港墘路","direction":"SW","location_type":"2"},"geometry":{"type":"Point","coordinates":[121.57285,25.07491]}},{"type":"Feature","id":"XWXMM00","properties":{"cms_id":"XWXMM00","link_id":"6003880700000A","road_id":"600388A","road_name":"故宮路","direction":"NW","location_type":"1"},"geometry":{"type":"Point","coordinates":[121.54682,25.09758]}},{"type":"Feature","id":"XFNNG20","properties":{"cms_id":"XFNNG20","link_id":"6001510300010A","road_id":"600151A","road_name":"和平東路三段","direction":"SE","location_type":"1"},"geometry":{"type":"Point","coordinates":[121.55022,25.02443]}},{"type":"Feature","id":"XJBJ900","properties":{"cms_id":"XJBJ900","link_id":"6008310400010A","road_id":"600831A","road_name":"金山南路一段","direction":"S","location_type":"1"},"geometry":{"type":"Point","coordinates":[121.52846,25.03902]}},{"type":"Feature","id":"X8010A0","properties":{"cms_id":"X8010A0","link_id":"6002960700010A","road_id":"600296A","road_name":"延平北路六段","direction":"NW","location_type":"2"},"geometry":{"type":"Point","coordinates":[121.49961,25.09207]}},{"type":"Feature","id":"X6111A0","properties":{"cms_id":"X6111A0","link_id":"2000201007000A","road_id":"200020","road_name":"市民大道高架道路","direction":"E","location_type":"2"},"geometry":{"type":"Point","coordinates":[121.56627,25.04528]}},{"type":"Feature","id":"X0130A0","properties":{"cms_id":"X0130A0","link_id":"2000200100150A","road_id":"200020","road_name":"市民大道高架道路","direction":"W","location_type":"2"},"geometry":{"type":"Point","coordinates":[121.52267,25.04784]}},{"type":"Feature","id":"XMBWS20","properties":{"cms_id":"XMBWS20","link_id":"6001340200020A","road_id":"600134A","road_name":"南港路三段","direction":"E","location_type":"1"},"geometry":{"type":"Point","coordinates":[121.59046,25.05356]}},{"type":"Feature","id":"XKXJW40","properties":{"cms_id":"XKXJW40","link_id":"6004930000080A","road_id":"600493A","road_name":"松江路","direction":"N","location_type":"1"},"geometry":{"type":"Point","coordinates":[121.53289,25.04935]}},{"type":"Feature","id":"XQJWW40","properties":{"cms_id":"XQJWW40","link_id":"6005320600070A","road_id":"600532A","road_name":"民權東路六段","direction":"W","location_type":"1"},"geometry":{"type":"Point","coordinates":[121.60387,25.07113]}},{"type":"Feature","id":"XNS5500","properties":{"cms_id":"XNS5500","link_id":"6006650000013A","road_id":"600665A","road_name":"經貿一路","direction":"N","location_type":"1"},"geometry":{"type":"Point","coordinates":[121.61911,25.05953]}},{"type":"Feature","id":"XLDUX60","properties":{"cms_id":"XLDUX60","link_id":"6000970600060A","road_id":"600097A","road_name":"八德路四段","direction":"W","location_type":"1"},"geometry":{"type":"Point","coordinates":[121.5787,25.05019]}},{"type":"Feature","id":"XLEM800","properties":{"cms_id":"XLEM800","link_id":"6003200000050A","road_id":"600320A","road_name":"復興北路","direction":"N","location_type":"1"},"geometry":{"type":"Point","coordinates":[121.54408,25.04955]}},{"type":"Feature","id":"X4010A0","properties":{"cms_id":"X4010A0","link_id":"2000100100680F","road_id":"","road_name":"","direction":"","location_type":"2"},"geometry":{"type":"Point","coordinates":[121.53492,24.99433]}},{"type":"Feature","id":"X0150C0","properties":{"cms_id":"X0150C0","link_id":"2000200000400A","road_id":"200020","road_name":"市民大道高架道路","direction":"E","location_type":"2"},"geometry":{"type":"Point","coordinates":[121.54774,25.04493]}},{"type":"Feature","id":"XFQM600","properties":{"cms_id":"XFQM600","link_id":"6001910600000A","road_id":"600191A","road_name":"大度路","direction":"W","location_type":"1"},"geometry":{"type":"Point","coordinates":[121.49091,25.12168]}},{"type":"Feature","id":"X1051A1","properties":{"cms_id":"X1051A1","link_id":"6003030000030A","road_id":"600303A","road_name":"建國北路二段","direction":"N","location_type":"1"},"geometry":{"type":"Point","coordinates":[121.53707,25.0524]}},{"type":"Feature","id":"X1201E0","properties":{"cms_id":"X1201E0","link_id":"2000401002000A","road_id":"200040","road_name":"建國南北快速道路","direction":"S","location_type":"2"},"geometry":{"type":"Point","coordinates":[121.53178,25.07225]}},{"type":"Feature","id":"XEWM540","properties":{"cms_id":"XEWM540","link_id":"6003220000010A","road_id":"600322A","road_name":"復興南路二段","direction":"N","location_type":"1"},"geometry":{"type":"Point","coordinates":[121.54333,25.02261]}},{"type":"Feature","id":"XQFHV20","properties":{"cms_id":"XQFHV20","link_id":"6005250200030A","road_id":"600525A","road_name":"民族西路","direction":"E","location_type":"1"},"geometry":{"type":"Point","coordinates":[121.52089,25.06838]}},{"type":"Feature","id":"X2WNZ40","properties":{"cms_id":"X2WNZ40","link_id":"6007960300050A","road_id":"600796A","road_name":"辛亥路三段","direction":"SE","location_type":"1"},"geometry":{"type":"Point","coordinates":[121.55228,25.01436]}},{"type":"Feature","id":"XSM4D60","properties":{"cms_id":"XSM4D60","link_id":"6002860600020A","road_id":"600286A","road_name":"康湖路","direction":"W","location_type":"1"},"geometry":{"type":"Point","coordinates":[121.61513,25.07855]}},{"type":"Feature","id":"XLPN840","properties":{"cms_id":"XLPN840","link_id":"6003890000030A","road_id":"600389A","road_name":"敦化北路","direction":"N","location_type":"1"},"geometry":{"type":"Point","coordinates":[121.54878,25.05392]}},{"type":"Feature","id":"XI6I920","properties":{"cms_id":"XI6I920","link_id":"6003650400060A","road_id":"600365A","road_name":"成功路二段","direction":"S","location_type":"2"},"geometry":{"type":"Point","coordinates":[121.59128,25.06068]}},{"type":"Feature","id":"XI6I921","properties":{"cms_id":"XI6I921","link_id":"6000600600000A","road_id":"600060A","road_name":"仁愛路二段","direction":"W","location_type":"2"},"geometry":{"type":"Point","coordinates":[121.52706,25.03834]}},{"type":"Feature","id":"X6340G0","properties":{"cms_id":"X6340G0","link_id":"2000900100140A","road_id":"200090","road_name":"環東大道","direction":"W","location_type":"2"},"geometry":{"type":"Point","coordinates":[121.58078,25.057]}},{"type":"Feature","id":"X03D0G0","properties":{"cms_id":"X03D0G0","link_id":"2000200000150A","road_id":"200020","road_name":"市民大道高架道路","direction":"E","location_type":"1"},"geometry":{"type":"Point","coordinates":[121.52135,25.04805]}},{"type":"Feature","id":"XKWMR60","properties":{"cms_id":"XKWMR60","link_id":"6000950600080A","road_id":"600095A","road_name":"八德路二段","direction":"W","location_type":"2"},"geometry":{"type":"Point","coordinates":[121.54663,25.04819]}},{"type":"Feature","id":"X6321G0","properties":{"cms_id":"X6321G0","link_id":"6006650400016A","road_id":"600665A","road_name":"經貿一路","direction":"S","location_type":"2"},"geometry":{"type":"Point","coordinates":[121.61857,25.05998]}},{"type":"Feature","id":"XZ030A0","properties":{"cms_id":"XZ030A0","link_id":"6000840400000A","road_id":"600084A","road_name":"光復南路","direction":"S","location_type":"2"},"geometry":{"type":"Point","coordinates":[121.55752,25.04587]}},{"type":"Feature","id":"XGXF860","properties":{"cms_id":"XGXF860","link_id":"6001540700043A","road_id":"600154A","road_name":"和平西路二段","direction":"NW","location_type":"1"},"geometry":{"type":"Point","coordinates":[121.51154,25.02928]}},{"type":"Feature","id":"XP8GX20","properties":{"cms_id":"XP8GX20","link_id":"6005350600030A","road_id":"600535A","road_name":"民權西路","direction":"W","location_type":"1"},"geometry":{"type":"Point","coordinates":[121.51631,25.06288]}},{"type":"Feature","id":"XWUIR40","properties":{"cms_id":"XWUIR40","link_id":"6000300400000A","road_id":"600030A","road_name":"中山北路五段","direction":"S","location_type":"1"},"geometry":{"type":"Point","coordinates":[121.52727,25.09772]}},{"type":"Feature","id":"XLNX920","properties":{"cms_id":"XLNX920","link_id":"6002710200010A","road_id":"600271A","road_name":"市民大道七段","direction":"E","location_type":"1"},"geometry":{"type":"Point","coordinates":[121.59295,25.05102]}},{"type":"Feature","id":"XHLNV40","properties":{"cms_id":"XHLNV40","link_id":"6001320200020A","road_id":"600132A","road_name":"南港路一段","direction":"E","location_type":"2"},"geometry":{"type":"Point","coordinates":[121.61419,25.05511]}},{"type":"Feature","id":"XHTFV00","properties":{"cms_id":"XHTFV00","link_id":"6008260700000A","road_id":"600826A","road_name":"重慶南路二段","direction":"NW","location_type":"1"},"geometry":{"type":"Point","coordinates":[121.51395,25.03277]}},{"type":"Feature","id":"X1021A0","properties":{"cms_id":"X1021A0","link_id":"2000400100360A","road_id":"200040","road_name":"建國南北快速道路","direction":"N","location_type":"2"},"geometry":{"type":"Point","coordinates":[121.53799,25.03849]}},{"type":"Feature","id":"X1231E0","properties":{"cms_id":"X1231E0","link_id":"2000401005000A","road_id":"200040","road_name":"建國南北快速道路","direction":"S","location_type":"2"},"geometry":{"type":"Point","coordinates":[121.53654,25.05444]}},{"type":"Feature","id":"XWRLS20","properties":{"cms_id":"XWRLS20","link_id":"6006960200000A","road_id":"600696A","road_name":"至善路一段","direction":"E","location_type":"1"},"geometry":{"type":"Point","coordinates":[121.54217,25.09718]}},{"type":"Feature","id":"XGHCE00","properties":{"cms_id":"XGHCE00","link_id":"6007760500010A","road_id":"600776A","road_name":"西園路二段","direction":"SW","location_type":"1"},"geometry":{"type":"Point","coordinates":[121.49474,25.02783]}},{"type":"Feature","id":"XMVUL20","properties":{"cms_id":"XMVUL20","link_id":"6007200700040A","road_id":"600720A","road_name":"舊宗路一段","direction":"NW","location_type":"1"},"geometry":{"type":"Point","coordinates":[121.57947,25.06006]}},{"type":"Feature","id":"XDUQI40","properties":{"cms_id":"XDUQI40","link_id":"6001510700110A","road_id":"600151A","road_name":"和平東路三段","direction":"NW","location_type":"1"},"geometry":{"type":"Point","coordinates":[121.56114,25.01567]}},{"type":"Feature","id":"X9201A0","properties":{"cms_id":"X9201A0","link_id":"6000780600060A","road_id":"600078A","road_name":"信義路五段","direction":"W","location_type":"2"},"geometry":{"type":"Point","coordinates":[121.57392,25.03347]}},{"type":"Feature","id":"XJGPC20","properties":{"cms_id":"XJGPC20","link_id":"6003360600026A","road_id":"600336A","road_name":"忠孝東路四段","direction":"W","location_type":"1"},"geometry":{"type":"Point","coordinates":[121.55543,25.04138]}}]}