{"type":"FeatureCollection","metadata":{"source":"臺北市政府交通局路口時制號誌資料(20250609更新).csv","source_updated":"2025-06-09","filter":"official road-name match and within 40m of official-aligned challenge road geometry","total_official_records":2372,"crs":"EPSG:4326"},"features":[{"type":"Feature","id":"SFNN710","properties":{"icid":"IFNN7","device_id":"SFNN710","name":"和平東三段-敦化南二段","group":"GS0091","report_url":"https://www.ttcx.dot.gov.taipei/cpt/api/TimingPlan/pdf/SFNN710","segment_id":"RD_TPE_012","corridor_distance_m":2.1,"location_source":"臺北市政府交通局","phase_source":"simulation"},"geometry":{"type":"Point","coordinates":[121.548724,25.024555]}},{"type":"Feature","id":"SG8N710","properties":{"icid":"IG8N7","device_id":"SG8N710","name":"敦化南二段--安和路二段171巷","group":"GA0081","report_url":"https://www.ttcx.dot.gov.taipei/cpt/api/TimingPlan/pdf/SG8N710","segment_id":"RD_TPE_012","corridor_distance_m":0.7,"location_source":"臺北市政府交通局","phase_source":"simulation"},"geometry":{"type":"Point","coordinates":[121.548777,25.029909]}},{"type":"Feature","id":"SGHN810","properties":{"icid":"IGHN8","device_id":"SGHN810","name":"敦化南二段81巷","group":"GA0081","report_url":"https://www.ttcx.dot.gov.taipei/cpt/api/TimingPlan/pdf/SGHN810","segment_id":"RD_TPE_012","corridor_distance_m":0.9,"location_source":"臺北市政府交通局","phase_source":"simulation"},"geometry":{"type":"Point","coordinates":[121.54875,25.028121]}},{"type":"Feature","id":"SH6N710","properties":{"icid":"IH6N7","device_id":"SH6N710","name":"敦化南二段63巷","group":"GA0081","report_url":"https://www.ttcx.dot.gov.taipei/cpt/api/TimingPlan/pdf/SH6N710","segment_id":"RD_TPE_012","corridor_distance_m":0.8,"location_source":"臺北市政府交通局","phase_source":"simulation"},"geometry":{"type":"Point","coordinates":[121.548772,25.030947]}},{"type":"Feature","id":"SHJRJ10","properties":{"icid":"IHJRJ","device_id":"SHJRJ10","name":"信義路五段-松智路","group":"GN0290","report_url":"https://www.ttcx.dot.gov.taipei/cpt/api/TimingPlan/pdf/SHJRJ10","segment_id":"RD_TPE_013","corridor_distance_m":0.0,"location_source":"臺北市政府交通局","phase_source":"simulation"},"geometry":{"type":"Point","coordinates":[121.565399,25.032889]}},{"type":"Feature","id":"SHJS610","properties":{"icid":"IHJS6","device_id":"SHJS610","name":"信義路五段-松仁路","group":"GS0003","report_url":"https://www.ttcx.dot.gov.taipei/cpt/api/TimingPlan/pdf/SHJS610","segment_id":"RD_TPE_013","corridor_distance_m":0.0,"location_source":"臺北市政府交通局","phase_source":"simulation"},"geometry":{"type":"Point","coordinates":[121.568292,25.032824]}},{"type":"Feature","id":"SHKQP10","properties":{"icid":"IHKQP","device_id":"SHKQP10","name":"信義路五段-莊敬路","group":"GC0092","report_url":"https://www.ttcx.dot.gov.taipei/cpt/api/TimingPlan/pdf/SHKQP10","segment_id":"RD_TPE_013","corridor_distance_m":3.3,"location_source":"臺北市政府交通局","phase_source":"simulation"},"geometry":{"type":"Point","coordinates":[121.561346,25.032967]}},{"type":"Feature","id":"SHLN710","properties":{"icid":"IHLN7","device_id":"SHLN710","name":"信義路四段-敦化南一段","group":"GA0081","report_url":"https://www.ttcx.dot.gov.taipei/cpt/api/TimingPlan/pdf/SHLN710","segment_id":"RD_TPE_006","corridor_distance_m":0.0,"location_source":"臺北市政府交通局","phase_source":"simulation"},"geometry":{"type":"Point","coordinates":[121.548802,25.033249]}},{"type":"Feature","id":"SI6NV10","properties":{"icid":"II6NV","device_id":"SI6NV10","name":"敦化南一段295巷","group":"GA0080","report_url":"https://www.ttcx.dot.gov.taipei/cpt/api/TimingPlan/pdf/SI6NV10","segment_id":"RD_TPE_006","corridor_distance_m":2.3,"location_source":"臺北市政府交通局","phase_source":"simulation"},"geometry":{"type":"Point","coordinates":[121.548841,25.035388]}},{"type":"Feature","id":"SI9QP10","properties":{"icid":"II9QP","device_id":"SI9QP10","name":"基隆路二段-松壽路","group":"GN0999","report_url":"https://www.ttcx.dot.gov.taipei/cpt/api/TimingPlan/pdf/SI9QP10","segment_id":"RD_TPE_011","corridor_distance_m":0.0,"location_source":"臺北市政府交通局","phase_source":"simulation"},"geometry":{"type":"Point","coordinates":[121.56134,25.035929]}},{"type":"Feature","id":"SI9R710","properties":{"icid":"II9R7","device_id":"SI9R710","name":"市府路-松壽路","group":"GC0093","report_url":"https://www.ttcx.dot.gov.taipei/cpt/api/TimingPlan/pdf/SI9R710","segment_id":"RD_TPE_010","corridor_distance_m":0.0,"location_source":"臺北市政府交通局","phase_source":"simulation"},"geometry":{"type":"Point","coordinates":[121.563529,25.035884]}},{"type":"Feature","id":"SI9RI10","properties":{"icid":"II9RI","device_id":"SI9RI10","name":"松壽路-松智路","group":"GC0094","report_url":"https://www.ttcx.dot.gov.taipei/cpt/api/TimingPlan/pdf/SI9RI10","segment_id":"RD_TPE_011","corridor_distance_m":0.0,"location_source":"臺北市政府交通局","phase_source":"simulation"},"geometry":{"type":"Point","coordinates":[121.565462,25.03585]}},{"type":"Feature","id":"SIFN810","properties":{"icid":"IIFN8","device_id":"SIFN810","name":"仁愛路四段-敦化南一段南側(調撥車道專用)","group":"GA0081","report_url":"https://www.ttcx.dot.gov.taipei/cpt/api/TimingPlan/pdf/SIFN810","segment_id":"RD_TPE_006","corridor_distance_m":1.8,"location_source":"臺北市政府交通局","phase_source":"simulation"},"geometry":{"type":"Point","coordinates":[121.548828,25.036887]}},{"type":"Feature","id":"SIKPW10","properties":{"icid":"IIKPW","device_id":"SIKPW10","name":"仁愛路四段-光復南路","group":"GA0086","report_url":"https://www.ttcx.dot.gov.taipei/cpt/api/TimingPlan/pdf/SIKPW10","segment_id":"RD_TPE_002","corridor_distance_m":0.0,"location_source":"臺北市政府交通局","phase_source":"simulation"},"geometry":{"type":"Point","coordinates":[121.557582,25.037667]}},{"type":"Feature","id":"SIKQP10","properties":{"icid":"IIKQP","device_id":"SIKQP10","name":"仁愛路四段-逸仙路","group":"GC0083","report_url":"https://www.ttcx.dot.gov.taipei/cpt/api/TimingPlan/pdf/SIKQP10","segment_id":"RD_TPE_005","corridor_distance_m":2.8,"location_source":"臺北市政府交通局","phase_source":"simulation"},"geometry":{"type":"Point","coordinates":[121.561506,25.037553]}},{"type":"Feature","id":"SIKQU10","properties":{"icid":"IIKQU","device_id":"SIKQU10","name":"仁愛路四段-基隆路二段","group":"GC0083","report_url":"https://www.ttcx.dot.gov.taipei/cpt/api/TimingPlan/pdf/SIKQU10","segment_id":"RD_TPE_005","corridor_distance_m":3.6,"location_source":"臺北市政府交通局","phase_source":"simulation"},"geometry":{"type":"Point","coordinates":[121.562308,25.037523]}},{"type":"Feature","id":"SIKR710","properties":{"icid":"IIKR7","device_id":"SIKR710","name":"仁愛路四段-市府路","group":"GC0016","report_url":"https://www.ttcx.dot.gov.taipei/cpt/api/TimingPlan/pdf/SIKR710","segment_id":"RD_TPE_005","corridor_distance_m":0.0,"location_source":"臺北市政府交通局","phase_source":"simulation"},"geometry":{"type":"Point","coordinates":[121.563557,25.037473]}},{"type":"Feature","id":"SILNY10","properties":{"icid":"IILNY","device_id":"SILNY10","name":"仁愛路四段266巷","group":"GA0086","report_url":"https://www.ttcx.dot.gov.taipei/cpt/api/TimingPlan/pdf/SILNY10","segment_id":"RD_TPE_005","corridor_distance_m":3.8,"location_source":"臺北市政府交通局","phase_source":"simulation"},"geometry":{"type":"Point","coordinates":[121.552935,25.037757]}},{"type":"Feature","id":"SILPI10","properties":{"icid":"IILPI","device_id":"SILPI10","name":"仁愛路四段-延吉街","group":"GA0086","report_url":"https://www.ttcx.dot.gov.taipei/cpt/api/TimingPlan/pdf/SILPI10","segment_id":"RD_TPE_008","corridor_distance_m":0.0,"location_source":"臺北市政府交通局","phase_source":"simulation"},"geometry":{"type":"Point","coordinates":[121.555442,25.037711]}},{"type":"Feature","id":"SIMN810","properties":{"icid":"IIMN8","device_id":"SIMN810","name":"仁愛路四段-敦化南一段","group":"GA0080","report_url":"https://www.ttcx.dot.gov.taipei/cpt/api/TimingPlan/pdf/SIMN810","segment_id":"RD_TPE_005","corridor_distance_m":0.0,"location_source":"臺北市政府交通局","phase_source":"simulation"},"geometry":{"type":"Point","coordinates":[121.548833,25.037835]}},{"type":"Feature","id":"SIMNN10","properties":{"icid":"IIMNN","device_id":"SIMNN10","name":"仁愛路四段-安和路一段","group":"GC0136","report_url":"https://www.ttcx.dot.gov.taipei/cpt/api/TimingPlan/pdf/SIMNN10","segment_id":"RD_TPE_005","corridor_distance_m":4.5,"location_source":"臺北市政府交通局","phase_source":"simulation"},"geometry":{"type":"Point","coordinates":[121.551775,25.037779]}},{"type":"Feature","id":"SIMRF10","properties":{"icid":"IIMRF","device_id":"SIMRF10","name":"仁愛路四段-國父紀念館","group":"GA0086","report_url":"https://www.ttcx.dot.gov.taipei/cpt/api/TimingPlan/pdf/SIMRF10","segment_id":"RD_TPE_005","corridor_distance_m":1.8,"location_source":"臺北市政府交通局","phase_source":"simulation"},"geometry":{"type":"Point","coordinates":[121.560426,25.037593]}},{"type":"Feature","id":"SIMRJ10","properties":{"icid":"IIMRJ","device_id":"SIMRJ10","name":"松智路-市府東門","group":"GC0193","report_url":"https://www.ttcx.dot.gov.taipei/cpt/api/TimingPlan/pdf/SIMRJ10","segment_id":"RD_TPE_014","corridor_distance_m":1.7,"location_source":"臺北市政府交通局","phase_source":"simulation"},"geometry":{"type":"Point","coordinates":[121.56552,25.037864]}},{"type":"Feature","id":"SIWR710","properties":{"icid":"IIWR7","device_id":"SIWR710","name":"市府路-松高路","group":"GC0012","report_url":"https://www.ttcx.dot.gov.taipei/cpt/api/TimingPlan/pdf/SIWR710","segment_id":"RD_TPE_007","corridor_distance_m":0.0,"location_source":"臺北市政府交通局","phase_source":"simulation"},"geometry":{"type":"Point","coordinates":[121.563604,25.039134]}},{"type":"Feature","id":"SIWRJ10","properties":{"icid":"IIWRJ","device_id":"SIWRJ10","name":"松智路-松高路","group":"GC0017","report_url":"https://www.ttcx.dot.gov.taipei/cpt/api/TimingPlan/pdf/SIWRJ10","segment_id":"RD_TPE_007","corridor_distance_m":0.0,"location_source":"臺北市政府交通局","phase_source":"simulation"},"geometry":{"type":"Point","coordinates":[121.565526,25.039091]}},{"type":"Feature","id":"SIXPW10","properties":{"icid":"IIXPW","device_id":"SIXPW10","name":"光復南路290巷","group":"GS0228","report_url":"https://www.ttcx.dot.gov.taipei/cpt/api/TimingPlan/pdf/SIXPW10","segment_id":"RD_TPE_002","corridor_distance_m":0.0,"location_source":"臺北市政府交通局","phase_source":"simulation"},"geometry":{"type":"Point","coordinates":[121.557619,25.039319]}},{"type":"Feature","id":"SJ7R910","properties":{"icid":"IJ7R9","device_id":"SJ7R910","name":"基隆路一段-市府轉運站","group":"GA0089","report_url":"https://www.ttcx.dot.gov.taipei/cpt/api/TimingPlan/pdf/SJ7R910","segment_id":"RD_TPE_003","corridor_distance_m":1.3,"location_source":"臺北市政府交通局","phase_source":"simulation"},"geometry":{"type":"Point","coordinates":[121.563854,25.0401]}},{"type":"Feature","id":"SJ8N810","properties":{"icid":"IJ8N8","device_id":"SJ8N810","name":"敦化南一段-安和路","group":"GS0001","report_url":"https://www.ttcx.dot.gov.taipei/cpt/api/TimingPlan/pdf/SJ8N810","segment_id":"RD_TPE_006","corridor_distance_m":0.7,"location_source":"臺北市政府交通局","phase_source":"simulation"},"geometry":{"type":"Point","coordinates":[121.548863,25.040294]}},{"type":"Feature","id":"SJERC10","properties":{"icid":"IJERC","device_id":"SJERC10","name":"忠孝東四段-基隆路一段","group":"GA0089","report_url":"https://www.ttcx.dot.gov.taipei/cpt/api/TimingPlan/pdf/SJERC10","segment_id":"RD_TPE_001","corridor_distance_m":0.0,"location_source":"臺北市政府交通局","phase_source":"simulation"},"geometry":{"type":"Point","coordinates":[121.564465,25.041144]}},{"type":"Feature","id":"SJFPW10","properties":{"icid":"IJFPW","device_id":"SJFPW10","name":"忠孝東四段-光復南路","group":"GN0085","report_url":"https://www.ttcx.dot.gov.taipei/cpt/api/TimingPlan/pdf/SJFPW10","segment_id":"RD_TPE_002","corridor_distance_m":0.2,"location_source":"臺北市政府交通局","phase_source":"simulation"},"geometry":{"type":"Point","coordinates":[121.557658,25.041314]}},{"type":"Feature","id":"SJFQQ10","properties":{"icid":"IJFQQ","device_id":"SJFQQ10","name":"忠孝東四段-逸仙路","group":"GA0089","report_url":"https://www.ttcx.dot.gov.taipei/cpt/api/TimingPlan/pdf/SJFQQ10","segment_id":"RD_TPE_001","corridor_distance_m":2.9,"location_source":"臺北市政府交通局","phase_source":"simulation"},"geometry":{"type":"Point","coordinates":[121.561582,25.041218]}},{"type":"Feature","id":"SJFQX10","properties":{"icid":"IJFQX","device_id":"SJFQX10","name":"忠孝東四段553巷","group":"GA0089","report_url":"https://www.ttcx.dot.gov.taipei/cpt/api/TimingPlan/pdf/SJFQX10","segment_id":"RD_TPE_001","corridor_distance_m":3.0,"location_source":"臺北市政府交通局","phase_source":"simulation"},"geometry":{"type":"Point","coordinates":[121.562731,25.041187]}},{"type":"Feature","id":"SJGMT10","properties":{"icid":"IJGMT","device_id":"SJGMT10","name":"忠孝東四段77巷","group":"GS0001","report_url":"https://www.ttcx.dot.gov.taipei/cpt/api/TimingPlan/pdf/SJGMT10","segment_id":"RD_TPE_001","corridor_distance_m":3.8,"location_source":"臺北市政府交通局","phase_source":"simulation"},"geometry":{"type":"Point","coordinates":[121.547184,25.041543]}},{"type":"Feature","id":"SJGN710","properties":{"icid":"IJGN7","device_id":"SJGN710","name":"忠孝東四段--敦化南一段","group":"GS0001","report_url":"https://www.ttcx.dot.gov.taipei/cpt/api/TimingPlan/pdf/SJGN710","segment_id":"RD_TPE_006","corridor_distance_m":0.5,"location_source":"臺北市政府交通局","phase_source":"simulation"},"geometry":{"type":"Point","coordinates":[121.548869,25.0415]}},{"type":"Feature","id":"SJGNK10","properties":{"icid":"IJGNK","device_id":"SJGNK10","name":"忠孝東四段170巷","group":"GN0085","report_url":"https://www.ttcx.dot.gov.taipei/cpt/api/TimingPlan/pdf/SJGNK10","segment_id":"RD_TPE_001","corridor_distance_m":2.6,"location_source":"臺北市政府交通局","phase_source":"simulation"},"geometry":{"type":"Point","coordinates":[121.550771,25.041466]}},{"type":"Feature","id":"SJGNY10","properties":{"icid":"IJGNY","device_id":"SJGNY10","name":"忠孝東四段216巷","group":"GN0085","report_url":"https://www.ttcx.dot.gov.taipei/cpt/api/TimingPlan/pdf/SJGNY10","segment_id":"RD_TPE_001","corridor_distance_m":3.8,"location_source":"臺北市政府交通局","phase_source":"simulation"},"geometry":{"type":"Point","coordinates":[121.552971,25.041413]}},{"type":"Feature","id":"SJGPC10","properties":{"icid":"IJGPC","device_id":"SJGPC10","name":"忠孝東四段-延吉街","group":"GN0085","report_url":"https://www.ttcx.dot.gov.taipei/cpt/api/TimingPlan/pdf/SJGPC10","segment_id":"RD_TPE_008","corridor_distance_m":0.0,"location_source":"臺北市政府交通局","phase_source":"simulation"},"geometry":{"type":"Point","coordinates":[121.554487,25.041389]}},{"type":"Feature","id":"SJGPQ10","properties":{"icid":"IJGPQ","device_id":"SJGPQ10","name":"敦化南一段-市民四段","group":"GA0322","report_url":"https://www.ttcx.dot.gov.taipei/cpt/api/TimingPlan/pdf/SJGPQ10","segment_id":"RD_TPE_006","corridor_distance_m":0.0,"location_source":"臺北市政府交通局","phase_source":"simulation"},"geometry":{"type":"Point","coordinates":[121.548883,25.044805]}},{"type":"Feature","id":"SJHM710","properties":{"icid":"IJHM7","device_id":"SJHM710","name":"忠孝東三段-復興南一段","group":"GS0001","report_url":"https://www.ttcx.dot.gov.taipei/cpt/api/TimingPlan/pdf/SJHM710","segment_id":"RD_TPE_015","corridor_distance_m":0.0,"location_source":"臺北市政府交通局","phase_source":"simulation"},"geometry":{"type":"Point","coordinates":[121.543766,25.041609]}},{"type":"Feature","id":"SJHML10","properties":{"icid":"IJHML","device_id":"SJHML10","name":"忠孝東四段-大安路一段","group":"GS0001","report_url":"https://www.ttcx.dot.gov.taipei/cpt/api/TimingPlan/pdf/SJHML10","segment_id":"RD_TPE_001","corridor_distance_m":4.6,"location_source":"臺北市政府交通局","phase_source":"simulation"},"geometry":{"type":"Point","coordinates":[121.546144,25.041556]}},{"type":"Feature","id":"SJNN610","properties":{"icid":"IJNN6","device_id":"SJNN610","name":"敦化南二段遠企中心","group":"GA0081","report_url":"https://www.ttcx.dot.gov.taipei/cpt/api/TimingPlan/pdf/SJNN610","segment_id":"RD_TPE_012","corridor_distance_m":4.5,"location_source":"臺北市政府交通局","phase_source":"simulation"},"geometry":{"type":"Point","coordinates":[121.548794,25.026848]}},{"type":"Feature","id":"SJVM710","properties":{"icid":"IJVM7","device_id":"SJVM710","name":"復興南一段107巷","group":"GN0073","report_url":"https://www.ttcx.dot.gov.taipei/cpt/api/TimingPlan/pdf/SJVM710","segment_id":"RD_TPE_015","corridor_distance_m":0.8,"location_source":"臺北市政府交通局","phase_source":"simulation"},"geometry":{"type":"Point","coordinates":[121.543814,25.043622]}},{"type":"Feature","id":"SK6NV10","properties":{"icid":"IK6NV","device_id":"SK6NV10","name":"市民四段-忠孝東路四段181巷(北側)","group":"GA0059","report_url":"https://www.ttcx.dot.gov.taipei/cpt/api/TimingPlan/pdf/SK6NV10","segment_id":"RD_TPE_004","corridor_distance_m":13.6,"location_source":"臺北市政府交通局","phase_source":"simulation"},"geometry":{"type":"Point","coordinates":[121.55246,25.044593]}},{"type":"Feature","id":"SK6NY10","properties":{"icid":"IK6NY","device_id":"SK6NY10","name":"市民四段-忠孝東四段223巷(南側)","group":"GA0059","report_url":"https://www.ttcx.dot.gov.taipei/cpt/api/TimingPlan/pdf/SK6NY10","segment_id":"RD_TPE_004","corridor_distance_m":11.4,"location_source":"臺北市政府交通局","phase_source":"simulation"},"geometry":{"type":"Point","coordinates":[121.553044,25.044518]}},{"type":"Feature","id":"SK6P810","properties":{"icid":"IK6P8","device_id":"SK6P810","name":"市民四段-延吉街","group":"GA0059","report_url":"https://www.ttcx.dot.gov.taipei/cpt/api/TimingPlan/pdf/SK6P810","segment_id":"RD_TPE_004","corridor_distance_m":35.3,"location_source":"臺北市政府交通局","phase_source":"simulation"},"geometry":{"type":"Point","coordinates":[121.553786,25.044118]}},{"type":"Feature","id":"SK8M710","properties":{"icid":"IK8M7","device_id":"SK8M710","name":"市民三段-復興南一段","group":"GA0322","report_url":"https://www.ttcx.dot.gov.taipei/cpt/api/TimingPlan/pdf/SK8M710","segment_id":"RD_TPE_015","corridor_distance_m":0.0,"location_source":"臺北市政府交通局","phase_source":"simulation"},"geometry":{"type":"Point","coordinates":[121.543859,25.044805]}},{"type":"Feature","id":"SK9ND10","properties":{"icid":"IK9ND","device_id":"SK9ND10","name":"市民四段-忠孝東路四段181巷(南側)","group":"GA0059","report_url":"https://www.ttcx.dot.gov.taipei/cpt/api/TimingPlan/pdf/SK9ND10","segment_id":"RD_TPE_004","corridor_distance_m":13.5,"location_source":"臺北市政府交通局","phase_source":"simulation"},"geometry":{"type":"Point","coordinates":[121.549667,25.044892]}},{"type":"Feature","id":"SK9PX10","properties":{"icid":"IK9PX","device_id":"SK9PX10","name":"市民四段-光復南32巷16弄","group":"GA0059","report_url":"https://www.ttcx.dot.gov.taipei/cpt/api/TimingPlan/pdf/SK9PX10","segment_id":"RD_TPE_004","corridor_distance_m":2.9,"location_source":"臺北市政府交通局","phase_source":"simulation"},"geometry":{"type":"Point","coordinates":[121.556753,25.044929]}},{"type":"Feature","id":"SKAMM10","properties":{"icid":"IKAMM","device_id":"SKAMM10","name":"市民四段-大安路一段","group":"GA0322","report_url":"https://www.ttcx.dot.gov.taipei/cpt/api/TimingPlan/pdf/SKAMM10","segment_id":"RD_TPE_004","corridor_distance_m":5.1,"location_source":"臺北市政府交通局","phase_source":"simulation"},"geometry":{"type":"Point","coordinates":[121.546219,25.045076]}},{"type":"Feature","id":"SKAPX10","properties":{"icid":"IKAPX","device_id":"SKAPX10","name":"市民四段-光復南路","group":"GS0010","report_url":"https://www.ttcx.dot.gov.taipei/cpt/api/TimingPlan/pdf/SKAPX10","segment_id":"RD_TPE_002","corridor_distance_m":0.0,"location_source":"臺北市政府交通局","phase_source":"simulation"},"geometry":{"type":"Point","coordinates":[121.557784,25.045105]}},{"type":"Feature","id":"SNNNG10","properties":{"icid":"INNNG","device_id":"SNNNG10","name":"敦化南一段-190,187巷","group":"GS0001","report_url":"https://www.ttcx.dot.gov.taipei/cpt/api/TimingPlan/pdf/SNNNG10","segment_id":"RD_TPE_006","corridor_distance_m":7.0,"location_source":"臺北市政府交通局","phase_source":"simulation"},"geometry":{"type":"Point","coordinates":[121.548814,25.042584]}}]}